[{"OBJECT_NAME":"STARLINK-35982","OBJECT_ID":"2025-280H","EPOCH":"2026-03-09T21:27:09.755424","MEAN_MOTION":14.98311944,"ECCENTRICITY":0.00028949,"INCLINATION":70.0018,"RA_OF_ASC_NODE":334.0542,"ARG_OF_PERICENTER":276.8858,"MEAN_ANOMALY":83.1972,"EPHEMERIS_TYPE":0,"CLASSIFICATION_TYPE":"U","NORAD_CAT_ID":66828,"ELEMENT_SET_NO":999,"REV_AT_EPOCH":1610,"BSTAR":0.00020800012,"MEAN_MOTION_DOT":2.389e-5,"MEAN_MOTION_DDOT":0},{"OBJECT_NAME":"CZ-6A DEB","OBJECT_ID":"2022-151VZ","EPOCH":"2026-03-09T16:21:33.047136","MEAN_MOTION":14.85344496,"ECCENTRICITY":0.00547112,"INCLINATION":98.6299,"RA_OF_ASC_NODE":135.7677,"ARG_OF_PERICENTER":212.8524,"MEAN_ANOMALY":146.9284,"EPHEMERIS_TYPE":0,"CLASSIFICATION_TYPE":"U","NORAD_CAT_ID":55208,"ELEMENT_SET_NO":999,"REV_AT_EPOCH":17071,"BSTAR":0.0043323,"MEAN_MOTION_DOT":0.00038405,"MEAN_MOTION_DDOT":0}]
